[{"OBJECT_NAME":"WILDFIRE 10","OBJECT_ID":"2023-133K","EPOCH":"2026-03-09T14:42:38.491200","MEAN_MOTION":13.85595388,"ECCENTRICITY":0.0005198,"INCLINATION":80.9995,"RA_OF_ASC_NODE":103.0888,"ARG_OF_PERICENTER":272.2038,"MEAN_ANOMALY":87.8523,"EPHEMERIS_TYPE":0,"CLASSIFICATION_TYPE":"U","NORAD_CAT_ID":57766,"ELEMENT_SET_NO":999,"REV_AT_EPOCH":12725,"BSTAR":6.2193e-5,"MEAN_MOTION_DOT":8.2e-7,"MEAN_MOTION_DDOT":0},{"OBJECT_NAME":"COSMOS 970 DEB","OBJECT_ID":"1977-121BD","EPOCH":"2026-03-09T13:00:26.581248","MEAN_MOTION":13.85934257,"ECCENTRICITY":0.00596514,"INCLINATION":65.7611,"RA_OF_ASC_NODE":333.4886,"ARG_OF_PERICENTER":33.5139,"MEAN_ANOMALY":32.0348,"EPHEMERIS_TYPE":0,"CLASSIFICATION_TYPE":"U","NORAD_CAT_ID":13948,"ELEMENT_SET_NO":999,"REV_AT_EPOCH":28954,"BSTAR":0.0013481625,"MEAN_MOTION_DOT":1.49e-5,"MEAN_MOTION_DDOT":0}]
